{"type": "FeatureCollection", "features": [ {"type": "Feature", "properties": {"norad_id": 31168, "name": "FENGYUN 1C DEB", "group": "fengyun-1c-debris", "lat": 72.5893968608448, "lon": -24.022368519570914, "alt_km": 628.3583880575234, "timestamp": "2025-12-20T03:42:47.673900+00:00", "meta": {"OBJECT_NAME": "FENGYUN 1C DEB", "OBJECT_ID": "1999-025BHW", "EPOCH": "2025-12-19T14:09:11.772576", "MEAN_MOTION": 14.67393332, "ECCENTRICITY": 0.0108591, "INCLINATION": 98.8912, "RA_OF_ASC_NODE": 125.4175, "ARG_OF_PERICENTER": 42.5825, "MEAN_ANOMALY": 318.3733, "EPHEMERIS_TYPE": 0, "CLASSIFICATION_TYPE": "U", "NORAD_CAT_ID": 31168, "ELEMENT_SET_NO": 999, "REV_AT_EPOCH": 99221, "BSTAR": 0.00038457, "MEAN_MOTION_DOT": 2.313e-05, "MEAN_MOTION_DDOT": 0}, "tle": {"line1": "1 31168U 99025BHW 25353.58971959  .00002313  00000+0  38457-3 0  9993", "line2": "2 31168  98.8912 125.4175 0108591  42.5825 318.3733 14.67393332992215"}}, "geometry": {"type": "Point", "coordinates": [-24.022368519570914, 72.5893968608448]}}, {"type": "Feature", "properties": {"norad_id": 31169, "name": "FENGYUN 1C DEB", "group": "fengyun-1c-debris", "lat": -47.32092610258115, "lon": 30.99530421034118, "alt_km": 780.5459004330605, "timestamp": "2025-12-20T03:42:47.673911+00:00", "meta": {"OBJECT_NAME": "FENGYUN 1C DEB", "OBJECT_ID": "1999-025BHX", "EPOCH": "2025-12-19T01:00:08.782848", "MEAN_MOTION": 14.26509037, "ECCENTRICITY": 0.00571882, "INCLINATION": 99.1563, "RA_OF_ASC_NODE": 19.7585, "ARG_OF_PERICENTER": 359.2626, "MEAN_ANOMALY": 0.8459, "EPHEMERIS_TYPE": 0, "CLASSIFICATION_TYPE": "U", "NORAD_CAT_ID": 31169, "ELEMENT_SET_NO": 999, "REV_AT_EPOCH": 57194, "BSTAR": 0.0015947535, "MEAN_MOTION_DOT": 3.864e-05, "MEAN_MOTION_DDOT": 0}, "tle": {"line1": "1 31169U 99025BHX 25353.04176832  .00003864  00000+0  15948-2 0  9993", "line2": "2 31169  99.1563  19.7585 0057188 359.2626   0.8459 14.26509037571941"}}, "geometry": {"type": "Point", "coordinates": [30.99530421034118, -47.32092610258115]}}, {"type": "Feature", "properties": {"norad_id": 31171, "name": "FENGYUN 1C DEB", "group": "fengyun-1c-debris", "lat": -81.97505952416343, "lon": 75.34078267717803, "alt_km": 682.1401335100609, "timestamp": "2025-12-20T03:42:47.673921+00:00", "meta": {"OBJECT_NAME": "FENGYUN 1C DEB", "OBJECT_ID": "1999-025BHZ", "EPOCH": "2025-12-19T18:40:13.253088", "MEAN_MOTION": 14.34993799, "ECCENTRICITY": 0.0153547, "INCLINATION": 98.0148, "RA_OF_ASC_NODE": 342.9492, "ARG_OF_PERICENTER": 295.3032, "MEAN_ANOMALY": 189.7876, "EPHEMERIS_TYPE": 0, "CLASSIFICATION_TYPE": "U", "NORAD_CAT_ID": 31171, "ELEMENT_SET_NO": 999, "REV_AT_EPOCH": 95931, "BSTAR": 0.0026487, "MEAN_MOTION_DOT": 8.582e-05, "MEAN_MOTION_DDOT": 0}, "tle": {"line1": "1 31171U 99025BHZ 25353.77793117  .00008582  00000+0  26487-2 0  9999", "line2": "2 31171  98.0148 342.9492 0153547 295.3032 189.7876 14.34993799959318"}}, "geometry": {"type": "Point", "coordinates": [75.34078267717803, -81.97505952416343]}}, {"type": "Feature", "properties": {"norad_id": 31172, "name": "FENGYUN 1C DEB", "group": "fengyun-1c-debris", "lat": 74.94739523327483, "lon": -35.029009630885106, "alt_km": 883.5991102551961, "timestamp": "2025-12-20T03:42:47.673931+00:00", "meta": {"OBJECT_NAME": "FENGYUN 1C DEB", "OBJECT_ID": "1999-025BJA", "EPOCH": "2025-12-19T07:12:49.133088", "MEAN_MOTION": 14.31519634, "ECCENTRICITY": 0.0148105, "INCLINATION": 98.4247, "RA_OF_ASC_NODE": 357.5829, "ARG_OF_PERICENTER": 248.9438, "MEAN_ANOMALY": 109.5853, "EPHEMERIS_TYPE": 0, "CLASSIFICATION_TYPE": "U", "NORAD_CAT_ID": 31172, "ELEMENT_SET_NO": 999, "REV_AT_EPOCH": 97720, "BSTAR": 0.00011208, "MEAN_MOTION_DOT": 2.89e-06, "MEAN_MOTION_DDOT": 0}, "tle": {"line1": "1 31172U 99025BJA 25353.30056867  .00000289  00000+0  11208-3 0  9995", "line2": "2 31172  98.4247 357.5829 0148105 248.9438 109.5853 14.31519634977209"}}, "geometry": {"type": "Point", "coordinates": [-35.029009630885106, 74.94739523327483]}}, {"type": "Feature", "properties": {"norad_id": 31175, "name": "FENGYUN 1C DEB", "group": "fengyun-1c-debris", "lat": 23.59862584825202, "lon": -9.274335071768869, "alt_km": 716.2850222535417, "timestamp": "2025-12-20T03:42:47.673941+00:00", "meta": {"OBJECT_NAME": "FENGYUN 1C DEB", "OBJECT_ID": "1999-025BJD", "EPOCH": "2025-12-19T17:44:11.171616", "MEAN_MOTION": 14.60307479, "ECCENTRICITY": 0.007436, "INCLINATION": 98.3966, "RA_OF_ASC_NODE": 354.0042, "ARG_OF_PERICENTER": 143.5954, "MEAN_ANOMALY": 217.0335, "EPHEMERIS_TYPE": 0, "CLASSIFICATION_TYPE": "U", "NORAD_CAT_ID": 31175, "ELEMENT_SET_NO": 999, "REV_AT_EPOCH": 65741, "BSTAR": 0.002427, "MEAN_MOTION_DOT": 0.00012157, "MEAN_MOTION_DDOT": 0}, "tle": {"line1": "1 31175U 99025BJD 25353.73901819  .00012157  00000+0  24270-2 0  9990", "line2": "2 31175  98.3966 354.0042 0074360 143.5954 217.0335 14.60307479657414"}}, "geometry": {"type": "Point", "coordinates": [-9.274335071768869, 23.59862584825202]}}, {"type": "Feature", "properties": {"norad_id": 31177, "name": "FENGYUN 1C DEB", "group": "fengyun-1c-debris", "lat": -76.53684629923671, "lon": -53.0505125830471, "alt_km": 812.602681117176, "timestamp": "2025-12-20T03:42:47.673951+00:00", "meta": {"OBJECT_NAME": "FENGYUN 1C DEB", "OBJECT_ID": "1999-025BJF", "EPOCH": "2025-12-19T17:38:35.721024", "MEAN_MOTION": 13.62390825, "ECCENTRICITY": 0.0308577, "INCLINATION": 98.7594, "RA_OF_ASC_NODE": 266.4801, "ARG_OF_PERICENTER": 295.8584, "MEAN_ANOMALY": 88.4957, "EPHEMERIS_TYPE": 0, "CLASSIFICATION_TYPE": "U", "NORAD_CAT_ID": 31177, "ELEMENT_SET_NO": 999, "REV_AT_EPOCH": 66307, "BSTAR": 0.003199, "MEAN_MOTION_DOT": 3.374e-05, "MEAN_MOTION_DDOT": 0}, "tle": {"line1": "1 31177U 99025BJF 25353.73513566  .00003374  00000+0  31990-2 0  9998", "line2": "2 31177  98.7594 266.4801 0308577 295.8584  88.4957 13.62390825663073"}}, "geometry": {"type": "Point", "coordinates": [-53.0505125830471, -76.53684629923671]}}, {"type": "Feature", "properties": {"norad_id": 31178, "name": "FENGYUN 1C DEB", "group": "fengyun-1c-debris", "lat": 27.890478022310692, "lon": -177.93574277920422, "alt_km": 888.3896889836842, "timestamp": "2025-12-20T03:42:47.673961+00:00", "meta": {"OBJECT_NAME": "FENGYUN 1C DEB", "OBJECT_ID": "1999-025BJG", "EPOCH": "2025-12-18T07:05:42.469152", "MEAN_MOTION": 14.22259738, "ECCENTRICITY": 0.01258717, "INCLINATION": 99.5125, "RA_OF_ASC_NODE": 354.9683, "ARG_OF_PERICENTER": 299.9049, "MEAN_ANOMALY": 58.9671, "EPHEMERIS_TYPE": 0, "CLASSIFICATION_TYPE": "U", "NORAD_CAT_ID": 31178, "ELEMENT_SET_NO": 999, "REV_AT_EPOCH": 95894, "BSTAR": 0.0016924306, "MEAN_MOTION_DOT": 4.025e-05, "MEAN_MOTION_DDOT": 0}, "tle": {"line1": "1 31178U 99025BJG 25352.29563043  .00004025  00000+0  16924-2 0  9998", "line2": "2 31178  99.5125 354.9683 0125871 299.9049  58.9671 14.22259738958941"}}, "geometry": {"type": "Point", "coordinates": [-177.93574277920422, 27.890478022310692]}}, {"type": "Feature", "properties": {"norad_id": 31179, "name": "FENGYUN 1C DEB", "group": "fengyun-1c-debris", "lat": -80.85820735040038, "lon": 94.63869682490936, "alt_km": 870.1543319227021, "timestamp": "2025-12-20T03:42:47.673971+00:00", "meta": {"OBJECT_NAME": "FENGYUN 1C DEB", "OBJECT_ID": "1999-025BJH", "EPOCH": "2025-12-18T07:16:13.358496", "MEAN_MOTION": 13.91941548, "ECCENTRICITY": 0.02152306, "INCLINATION": 99.0195, "RA_OF_ASC_NODE": 12.0814, "ARG_OF_PERICENTER": 345.6132, "MEAN_ANOMALY": 13.8961, "EPHEMERIS_TYPE": 0, "CLASSIFICATION_TYPE": "U", "NORAD_CAT_ID": 31179, "ELEMENT_SET_NO": 999, "REV_AT_EPOCH": 62018, "BSTAR": 0.00082156675, "MEAN_MOTION_DOT": 1.222e-05, "MEAN_MOTION_DDOT": 0}, "tle": {"line1": "1 31179U 99025BJH 25352.30293239  .00001222  00000+0  82157-3 0  9996", "line2": "2 31179  99.0195  12.0814 0215230 345.6132  13.8961 13.91941548620189"}}, "geometry": {"type": "Point", "coordinates": [94.63869682490936, -80.85820735040038]}}, {"type": "Feature", "properties": {"norad_id": 31180, "name": "FENGYUN 1C DEB", "group": "fengyun-1c-debris", "lat": 8.073526270501, "lon": -53.2604344154173, "alt_km": 1230.9131478935033, "timestamp": "2025-12-20T03:42:47.673982+00:00", "meta": {"OBJECT_NAME": "FENGYUN 1C DEB", "OBJECT_ID": "1999-025BJJ", "EPOCH": "2025-12-19T14:56:31.180704", "MEAN_MOTION": 13.70348103, "ECCENTRICITY": 0.049812, "INCLINATION": 99.218, "RA_OF_ASC_NODE": 124.9073, "ARG_OF_PERICENTER": 42.0019, "MEAN_ANOMALY": 21.5371, "EPHEMERIS_TYPE": 0, "CLASSIFICATION_TYPE": "U", "NORAD_CAT_ID": 31180, "ELEMENT_SET_NO": 999, "REV_AT_EPOCH": 64161, "BSTAR": 0.00013236, "MEAN_MOTION_DOT": 2.38e-06, "MEAN_MOTION_DDOT": 0}, "tle": {"line1": "1 31180U 99025BJJ 25353.62258311  .00000238  00000+0  13236-3 0  9994", "line2": "2 31180  99.2180 124.9073 0498120  42.0019  21.5371 13.70348103641617"}}, "geometry": {"type": "Point", "coordinates": [-53.2604344154173, 8.073526270501]}}, {"type": "Feature", "properties": {"norad_id": 31181, "name": "FENGYUN 1C DEB", "group": "fengyun-1c-debris", "lat": 78.82532822162429, "lon": -24.90491406138058, "alt_km": 815.216844096678, "timestamp": "2025-12-20T03:42:47.673992+00:00", "meta": {"OBJECT_NAME": "FENGYUN 1C DEB", "OBJECT_ID": "1999-025BJK", "EPOCH": "2025-12-16T00:49:27.083136", "MEAN_MOTION": 14.11897653, "ECCENTRICITY": 0.00479368, "INCLINATION": 98.7771, "RA_OF_ASC_NODE": 22.5146, "ARG_OF_PERICENTER": 65.4183, "MEAN_ANOMALY": 325.7974, "EPHEMERIS_TYPE": 0, "CLASSIFICATION_TYPE": "U", "NORAD_CAT_ID": 31181, "ELEMENT_SET_NO": 999, "REV_AT_EPOCH": 95814, "BSTAR": 0.00086139696, "MEAN_MOTION_DOT": 1.548e-05, "MEAN_MOTION_DDOT": 0}, "tle": {"line1": "1 31181U 99025BJK 25350.03434124  .00001548  00000+0  86140-3 0  9994", "line2": "2 31181  98.7771  22.5146 0047936  65.4183 325.7974 14.11897653958140"}}, "geometry": {"type": "Point", "coordinates": [-24.90491406138058, 78.82532822162429]}}]}